GLOBALSTAR M045 [-]     
1 25676U 99019A   24023.12360440 -.00000040  00000+0  47422-3 0  9991
2 25676  51.9996 321.8685 0000708 343.9512 118.7018 12.27027762130659
GLOBALSTAR M019 [-]     
1 25677U 99019B   24023.24598682  .00000040  00000+0  13529-2 0  9995
2 25677  51.9885  55.9390 0000681  26.1254  51.8124 12.13849487123094
GLOBALSTAR M044 [-]     
1 25678U 99019C   24023.09534797 -.00000058  00000+0  35470-3 0  9996
2 25678  51.9988 303.7828 0006523 129.0129 335.0127 11.90227456110461
GLOBALSTAR M042 [-]     
1 25679U 99019D   24023.28738328 -.00000063  00000+0  26980-3 0  9996
2 25679  52.0024  53.2006 0002728 327.4927 113.7145 12.22054759122793
GLOBALSTAR M025 [-]     
1 25770U 99031A   24022.92471795 -.00000036  00000+0  96033-3 0  9990
2 25770  51.9801 263.6428 0002011  36.9272  53.4611 11.22548824424299
GLOBALSTAR M049 [-]     
1 25771U 99031B   24023.00908753 -.00000039  00000+0  89397-3 0  9998
2 25771  51.9866 272.5216 0002239 232.7459 127.3133 11.12102872 60553
GLOBALSTAR M047 [-]     
1 25772U 99031C   24023.11101874 -.00000050  00000+0  53482-3 0  9999
2 25772  51.9864 318.0849 0016645 103.3711 256.8952 11.31917975413233
GLOBALSTAR M052 [-]     
1 25773U 99031D   24023.25913572 -.00000064  00000+0  50742-4 0  9993
2 25773  51.9893  27.8084 0002545  46.9381  39.4578 11.15047706421518
